FLOCK 4S-21             
1 47456U 21006AV  24151.14470642  .00041779  00000+0  72460-3 0  9995
2 47456  97.3316 216.5476 0005751 248.3237 111.7403 15.50746021186211
IDEASSAT                
1 47458U 21006AX  24151.09831531  .00032498  00000+0  79157-3 0  9997
2 47458  97.3344 210.3223 0005103 278.8127  81.2542 15.40846332185807
ASTROCAST-0103          
1 47487U 21006CC  24151.11292053  .00011563  00000+0  44473-3 0  9995
2 47487  97.3540 205.2194 0006320 348.8426  11.2671 15.26539237185396
ASTROCAST-0102          
1 47488U 21006CD  24151.59161816  .00013841  00000+0  46961-3 0  9995
2 47488  97.3427 205.2261 0004612 300.9388  59.1400 15.30623942185498
ASTROCAST-0104          
1 47519U 21006DK  24151.09646437  .00011044  00000+0  42493-3 0  9991
2 47519  97.3486 204.5823 0005845 314.8128  45.2635 15.26542091185383
FLOCK 4S-10             
1 47523U 21006DP  24151.17016161  .00033538  00000+0  61118-3 0  9997
2 47523  97.3325 215.2822 0003666 293.0829  67.0036 15.49393973186176
FLOCK 4S-7              
1 47527U 21006DT  24151.37152368  .00034288  00000+0  63527-3 0  9992
2 47527  97.3245 214.8882 0003380 251.0901 108.9984 15.48916853187164
LEMUR-2-CHANTAL         
1 47529U 21006DV  24151.45584715  .00342322  00000+0  16504-2 0  9991
2 47529  97.3243 218.7986 0010532 227.2183 132.8200 15.81640418187396
HIBER-4                 
1 47541U 21006EB  24151.15069166  .00080228  00000+0  11492-2 0  9995
2 47541  97.3210 212.9391 0005872 244.6693 115.3954 15.55892117186072
ARKTIKA-M 1             
1 47719U 21016A   24149.81169147  .00000179  00000+0  00000+0 0  9990
2 47719  63.1390 153.9932 6934974 268.7385  17.9747  2.00613533 23761
STARLINK-2342           
1 47883U 21021Z   24151.42471138  .00000959  00000+0  83271-4 0  9996
2 47883  53.0540 306.7890 0001123  93.4371 266.6747 15.06406653178589
GRUS-1B                 
1 47934U 21022C   24151.60429351  .00002188  00000+0  19837-3 0  9996
2 47934  97.6296  45.0841 0016665 315.9875  44.0018 14.96267442173982
2021-022F               
1 47937U 21022F   24151.59810834  .00007165  00000+0  37619-3 0  9995
2 47937  97.4630  47.6150 0013193 196.6134 163.4669 15.15946754175781
CANYVAL-C (PUMBAA)      
1 47938U 21022G   24151.60747512  .00018173  00000+0  71980-3 0  9990
2 47938  97.4591  49.9259 0013644 189.6312 170.4666 15.25388828175962
2021-022H               
1 47939U 21022H   24151.55576888  .00032772  00000+0  94133-3 0  9997
2 47939  97.4654  55.3305 0011833 152.6264 207.5605 15.35699587176267
WILDTRACKCUBE-SIMBA     
1 47941U 21022K   24151.60990025  .00011910  00000+0  53873-3 0  9996
2 47941  97.4621  48.5384 0014973 198.3517 161.7180 15.20968989175796
HIBER-3                 
1 47942U 21022L   24151.61136799  .00026840  00000+0  90323-3 0  9997
2 47942  97.4592  52.1537 0012481 176.3837 183.7496 15.30685920176065
2021-022M               
1 47943U 21022M   24151.60532411  .00032825  00000+0  94450-3 0  9993
2 47943  97.4643  55.5063 0011712 154.0638 206.1194 15.35646561176149
ELSA-D                  
1 47944U 21022N   24151.26219173  .00007901  00000+0  31086-3 0  9996
2 47944  97.4636  51.2447 0013006 178.9797 181.1470 15.25840246175974
UNISAT-7                
1 47945U 21022P   24151.62450800  .00007387  00000+0  37448-3 0  9997
2 47945  97.4608  47.6911 0014044 193.6538 166.4317 15.17165587175648
2021-022Q               
1 47946U 21022Q   24151.55026075  .00013349  00000+0  56374-3 0  9997
2 47946  97.4625  50.4666 0013326 178.9718 181.1549 15.23304197175948
NANOSATC-BR2            
1 47950U 21022U   24151.58639851  .00028830  00000+0  93543-3 0  9997
2 47950  97.4576  52.1641 0012624 178.2908 181.8378 15.31846367176064
CUBESX-SIRIUS-HSE       
1 47951U 21022V   24151.59299730  .00017903  00000+0  71812-3 0  9991
2 47951  97.4619  50.0089 0014117 190.5638 169.5306 15.24962932175895
CUBESX-HSE              
1 47952U 21022W   24151.54768572  .00016925  00000+0  67684-3 0  9997
2 47952  97.4618  50.0519 0014107 189.8916 170.2046 15.25076707175899
2021-022X               
1 47953U 21022X   24151.57751493  .00010823  00000+0  51620-3 0  9999
2 47953  97.4595  47.2554 0015080 202.8625 157.1939 15.19162576175466
KSU-CUBESAT             
1 47954U 21022Y   24151.24158340  .00018961  00000+0  69740-3 0  9999
2 47954  97.4627  50.9848 0013191 184.6740 175.4378 15.27845959175648
CHALLENGE ONE           
1 47956U 21022AA  24151.24063898  .00016787  00000+0  65292-3 0  9996
2 47956  97.4627  49.9572 0014155 191.6049 168.4864 15.26007185175645
2021-022AC              
1 47958U 21022AC  24151.59971517  .00011890  00000+0  55545-3 0  9992
2 47958  97.4574  47.3898 0015208 201.9114 158.1472 15.19854525174560
GRBALPHA                
1 47959U 21022AD  24151.57876290  .00016778  00000+0  66897-3 0  9995
2 47959  97.4623  50.2298 0013943 189.6563 170.4409 15.25180117174728
ORBICRAFT-ZORKY         
1 47960U 21022AE  24151.59427668  .00018289  00000+0  68971-3 0  9994
2 47960  97.4665  51.4635 0013275 185.7791 174.3297 15.27026893175475
3B5GSAT (SATELIOT 1)    
1 47961U 21022AF  24151.31567291  .00161469  00000+0  16799-2 0  9991
2 47961  97.4667  61.8998 0013179 143.1303 217.0864 15.63960537175427
STECCO                  
1 47962U 21022AG  24151.56267554  .00100951  00000+0  14714-2 0  9992
2 47962  97.4614  60.3313 0010876 136.3573 223.8543 15.55292657175385
SMOG-1                  
1 47964U 21022AJ  24151.44559212  .00136925  00000+0  15969-2 0  9999
2 47964  97.4630  61.8991 0012145 135.9819 224.2407 15.61108265175463
CENTAURI-3 (TYVAK-0210) 
1 47966U 21023B   24151.54463668  .00379249  00000+0  23158-2 0  9999
2 47966  45.0080 332.7630 0017785 301.0513  58.8642 15.75362446176781
GLOBAL-9                
1 47971U 21023G   24151.24521938  .00020835  00000+0  53691-3 0  9997
2 47971  44.9907  92.8219 0003545 208.2996 151.7699 15.38911609179634
BCCSAT-1                
1 48041U 21022AK  24151.27945701  .00061879  00000+0  12473-2 0  9991
2 48041  97.4635  57.8558 0010324 141.1594 219.0399 15.46290522175165
BEESAT-8                
1 48085U 21022AP  24151.52179720  .00025636  00000+0  83759-3 0  9994
2 48085  97.4776  53.4289 0012573 175.9392 184.1953 15.31648294175177
2021-033E               
1 48252U 21033E   24151.48565628  .00031884  00000+0  59872-3 0  9994
2 48252  97.2642 225.7341 0006704 220.8150 139.2599 15.48527326172519
AII-BRAVO               
1 48270U 21034C   24151.18082138  .00004812  00000+0  47368-3 0  9990
2 48270  97.6558 213.0901 0002724 214.1628 145.9417 14.92525921167586
TYVAK-182A              
1 48271U 21034D   24151.41458028  .00004516  00000+0  43136-3 0  9992
2 48271  97.6549 214.3736 0000447 280.0825  80.0344 14.93757107167681
CSS (TIANHE)            
1 48274U 21035A   24151.45131395  .00021107  00000+0  21535-3 0  9999
2 48274  41.4705 191.1922 0005250 156.3325 203.7758 15.64554509176325
TYVAK-0130              
1 48606U 21041BF  24151.44326825  .00007558  00000+0  49946-3 0  9998
2 48606  53.0302 213.3397 0013098  27.2238 332.9436 15.08265225166719
HAIYANG-2D              
1 48621U 21043A   24151.61973569  .00000008  00000+0  80783-4 0  9997
2 48621  65.9987   5.8849 0011212 277.4128  82.5666 13.83369671153143
2021-050D               
1 48843U 21050D   24151.55496608  .00009535  00000+0  39655-3 0  9993
2 48843  97.4021 229.8473 0008287 345.5094  14.5905 15.23959642165127
BRIK-II                 
1 48876U 21058F   24151.40559372  .00010020  00000+0  29934-3 0  9999
2 48876  60.6717 180.3268 0024423  33.2262 327.0358 15.34925362162325
TYVAK-0173              
1 48892U 21059P   24151.60008845  .00001761  00000+0  25373-3 0  9999
2 48892  96.0112  46.0104 0011593  46.2698 313.9475 14.77044702157709
CENTAURI-4 (TYVAK-0211) 
1 48898U 21059V   24148.95098348  .03329189  26060-5  83585-3 0  9995
2 48898  97.5976 312.0936 0012462 266.3397  93.6471 16.28826922163104
TUBIN                   
1 48900U 21059X   24151.59392467  .00014673  00000+0  51314-3 0  9993
2 48900  97.6439 295.7261 0007896 144.6334 215.5430 15.29614967162232
MANDRAKE 2 ABLE         
1 48907U 21059AE  24151.39725279  .00009236  00000+0  37383-3 0  9998
2 48907  97.6456 293.8190 0009104 150.8670 209.3077 15.24891581162090
MANDRAKE 2 BAKER        
1 48908U 21059AF  24151.39398150  .00009430  00000+0  37239-3 0  9999
2 48908  97.6469 294.2844 0008587 140.2544 219.9324 15.25714546162114
PACE-1                  
1 48909U 21059AG  24151.39373150  .00010612  00000+0  40397-3 0  9996
2 48909  97.6375 293.6678 0008799 137.9316 222.2599 15.26900685162151
YAM-2                   
1 48911U 21059AJ  24151.40245236  .00016256  00000+0  52049-3 0  9991
2 48911  97.6459 297.8344 0008362 134.5830 225.6095 15.32443144162330
ION SCV-003             
1 48912U 21059AK  24151.41909764  .00032629  00000+0  70230-3 0  9990
2 48912  97.6145 300.0253 0006712 133.7256 226.4548 15.44544442162663
YAM-3                   
1 48915U 21059AN  24151.38341591  .00007993  00000+0  32314-3 0  9994
2 48915  97.6428 293.9127 0009820 135.7293 224.4731 15.24971892162119
LEMUR-2-ANNABANANA      
1 48923U 21059AW  24150.39877169  .00164199  00000+0  66333-3 0  9998
2 48923  97.5744 315.9799 0003724 220.1153 139.9843 15.85902465163582
FARADAY_PHOENIX         
1 48924U 21059AX  24151.38906555  .00009586  00000+0  36614-3 0  9998
2 48924  97.6463 296.3159 0014705 135.3375 224.9050 15.26752639162235
PAINANI-2               
1 48928U 21059BB  24151.41372288  .00044390  00000+0  83896-3 0  9992
2 48928  97.6391 304.4638 0006687 123.1180 237.0713 15.48274350162763
SHERPA-LTE1             
1 48941U 21059BQ  24151.44300280  .00157748  11521-4  47107-3 0  9995
2 48941  97.6055 331.4214 0003178 211.5598 148.5486 15.92409481164569
QMR-KWT                 
1 48943U 21059BS  24151.55375432  .00074832  00000+0  10087-2 0  9993
2 48943  97.6290 305.7157 0002468 168.4515 191.6796 15.57571699162903
